H1 CPF 01  gfz 2022 12 17 01  8511 terrasarx 
H2 0702601  6201 31698    2022 12 17 00 59 42 2022 12 22 00 00 42   120 1 1  0 0 0
H9
10 0 59932  62622.000000  0    5689107.183    437317.570   3850982.353
10 0 59932  62742.000000  0    5149288.452    207836.014   4561889.334
10 0 59932  62862.000000  0    4515526.755    -15008.526   5192508.564
10 0 59932  62982.000000  0    3799090.200   -225776.547   5731774.668
10 0 59932  63102.000000  0    3012774.674   -419453.186   6170238.715
10 0 59932  63222.000000  0    2170668.110   -591559.328   6500228.042
10 0 59932  63342.000000  0    1287893.498   -738249.189   6715974.985
10 0 59932  63462.000000  0     380333.502   -856392.250   6813712.997
10 0 59932  63582.000000  0    -535656.976   -943637.435   6791737.112
10 0 59932  63702.000000  0   -1443544.685   -998459.288   6650430.880
10 0 59932  63822.000000  0   -2326914.993  -1020184.647   6392259.458
10 0 59932  63942.000000  0   -3169766.756  -1008999.431   6021729.394
10 0 59932  64062.000000  0   -3956803.159   -965935.836   5545316.846
10 0 59932  64182.000000  0   -4673714.131   -892841.070   4971361.231
10 0 59932  64302.000000  0   -5307443.616   -792327.077   4309924.704
10 0 59932  64422.000000  0   -5846435.602   -667702.037   3572619.360
10 0 59932  64542.000000  0   -6280853.314   -522885.148   2772405.566
10 0 59932  64662.000000  0   -6602768.976   -362306.504   1923365.295
10 0 59932  64782.000000  0   -6806319.154   -190793.945   1040450.777
10 0 59932  64902.000000  0   -6887818.659    -13450.605    139214.177
10 0 59932  65022.000000  0   -6845830.844    164474.552   -764474.900
10 0 59932  65142.000000  0   -6681192.059    337720.024  -1654718.253
10 0 59932  65262.000000  0   -6396989.939    501144.587  -2515876.034
10 0 59932  65382.000000  0   -5998499.574    649856.837  -3332848.011
10 0 59932  65502.000000  0   -5493073.798    779338.461  -4091343.947
10 0 59932  65622.000000  0   -4889993.901    885557.800  -4778132.864
10 0 59932  65742.000000  0   -4200286.108    965070.765  -5381269.670
10 0 59932  65862.000000  0   -3436508.681   1015107.210  -5890294.717
10 0 59932  65982.000000  0   -2612514.923   1033640.621  -6296404.769
10 0 59932  66102.000000  0   -1743197.875   1019440.501  -6592593.379
10 0 59932  66222.000000  0    -844220.179    972107.809  -6773760.840
10 0 59932  66342.000000  0      68264.748    892091.286  -6836791.160
10 0 59932  66462.000000  0     977895.126    780685.501  -6780599.652
10 0 59932  66582.000000  0    1868387.279    640010.221  -6606152.251
10 0 59932  66702.000000  0    2723821.561    472971.406  -6316450.481
10 0 59932  66822.000000  0    3528922.025    283204.936  -5916485.228
10 0 59932  66942.000000  0    4269326.200     75002.589  -5413158.667
10 0 59932  67062.000000  0    4931841.261   -146777.858  -4815176.583
10 0 59932  67182.000000  0    5504684.903   -376816.950  -4132909.659
10 0 59932  67302.000000  0    5977703.145   -609451.165  -3378223.048
10 0 59932  67422.000000  0    6342560.958   -838801.302  -2564278.145
10 0 59932  67542.000000  0    6592901.991  -1058909.359  -1705307.839
10 0 59932  67662.000000  0    6724471.902  -1263879.849   -816367.954
10 0 59932  67782.000000  0    6735201.204  -1448022.633     86929.526
10 0 59932  67902.000000  0    6625246.016  -1605993.694    988696.525
10 0 59932  68022.000000  0    6396983.325  -1732930.237   1873056.854
10 0 59932  68142.000000  0    6054961.929  -1824576.748   2724434.667
10 0 59932  68262.000000  0    5605808.770  -1877397.354   3527837.939
10 0 59932  68382.000000  0    5058093.597  -1888673.157   4269128.544
10 0 59932  68502.000000  0    4422156.702  -1856581.383   4935274.014
10 0 59932  68622.000000  0    3709905.449  -1780254.120   5514577.224
10 0 59932  68742.000000  0    2934582.211  -1659816.754   5996880.889
10 0 59932  68862.000000  0    2110509.754  -1496404.570   6373740.407
10 0 59932  68982.000000  0    1252821.605  -1292158.083   6638565.931
10 0 59932  69102.000000  0     377180.301  -1050196.470   6786732.017
10 0 59932  69222.000000  0    -500510.182   -774569.341   6815652.703
10 0 59932  69342.000000  0   -1364392.360   -470188.712   6724822.702
10 0 59932  69462.000000  0   -2198940.227   -142741.748   6515825.572
10 0 59932  69582.000000  0   -2989237.000    201414.819   6192308.310
10 0 59932  69702.000000  0   -3721242.395    555376.712   5759922.761
10 0 59932  69822.000000  0   -4382045.669    911828.362   5226233.095
10 0 59932  69942.000000  0   -4960099.128   1263191.599   4600589.503
10 0 59932  70062.000000  0   -5445427.948   1601784.459   3893969.491
10 0 59932  70182.000000  0   -5829810.618   1919986.090   3118788.079
10 0 59932  70302.000000  0   -6106926.826   2210404.529   2288680.999
10 0 59932  70422.000000  0   -6272469.935   2466043.486   1418263.463
10 0 59932  70542.000000  0   -6324220.383   2680464.441    522867.488
10 0 59932  70662.000000  0   -6262075.988   2847938.939   -381736.185
10 0 59932  70782.000000  0   -6088039.849   2963587.323  -1279624.649
10 0 59932  70902.000000  0   -5806165.546   3023500.393  -2155011.936
10 0 59932  71022.000000  0   -5422461.068   3024841.447  -2992535.217
10 0 59932  71142.000000  0   -4944753.472   2965924.787  -3777529.730
10 0 59932  71262.000000  0   -4382519.957   2846270.191  -4496287.033
10 0 59932  71382.000000  0   -3746689.836   2666632.071  -5136291.534
10 0 59932  71502.000000  0   -3049423.108   2429003.193  -5686431.100
10 0 59932  71622.000000  0   -2303872.664   2136594.435  -6137180.118
10 0 59932  71742.000000  0   -1523932.359   1793790.287  -6480754.613
10 0 59932  71862.000000  0    -723977.269   1406080.979  -6711234.077
10 0 59932  71982.000000  0      81397.666    979973.790  -6824652.980
10 0 59932  72102.000000  0     877637.416    522885.054  -6819061.128
10 0 59932  72222.000000  0    1650483.977     43013.835  -6694555.666
10 0 59932  72342.000000  0    2386226.575   -450802.084  -6453278.535
10 0 59932  72462.000000  0    3071939.507   -949244.400  -6099383.873
10 0 59932  72582.000000  0    3695706.880  -1442685.347  -5638973.444
10 0 59932  72702.000000  0    4246829.419  -1921368.764  -5080002.347
10 0 59932  72822.000000  0    4716012.453  -2375600.871  -4432153.185
10 0 59932  72942.000000  0    5095528.840  -2795945.103  -3706678.736
10 0 59932  73062.000000  0    5379354.690  -3173417.348  -2916215.836
10 0 59932  73182.000000  0    5563275.014  -3499677.662  -2074571.140
10 0 59932  73302.000000  0    5644954.660  -3767213.651  -1196481.971
10 0 59932  73422.000000  0    5623973.136  -3969511.668   -297357.179
10 0 59932  73542.000000  0    5501821.472  -4101210.520    606998.072
10 0 59932  73662.000000  0    5281860.355  -4158234.352   1500667.760
10 0 59932  73782.000000  0    4969239.468  -4137899.861   2367914.711
10 0 59932  73902.000000  0    4570780.442  -4038993.625   3193466.336
10 0 59932  74022.000000  0    4094827.800  -3861819.986   3962790.034
10 0 59932  74142.000000  0    3551071.517  -3608218.593   4662354.269
10 0 59932  74262.000000  0    2950343.505  -3281549.761   5279869.174
10 0 59932  74382.000000  0    2304396.505  -2886648.508   5804501.002
10 0 59932  74502.000000  0    1625668.980  -2429749.401   6227059.115
10 0 59932  74622.000000  0     927041.411  -1918384.283   6540150.918
10 0 59932  74742.000000  0     221589.654  -1361254.997   6738305.102
10 0 59932  74862.000000  0    -477660.318   -768083.060   6818061.560
10 0 59932  74982.000000  0   -1157972.041   -149438.859   6778027.416
10 0 59932  75102.000000  0   -1807129.465    483446.357   6618899.774
10 0 59932  75222.000000  0   -2413655.536   1118883.756   6343454.437
10 0 59932  75342.000000  0   -2967015.373   1744941.774   5956500.687
10 0 59932  75462.000000  0   -3457800.827   2349669.532   5464803.045
10 0 59932  75582.000000  0   -3877894.468   2921326.070   4876969.815
10 0 59932  75702.000000  0   -4220608.769   3448610.536   4203307.782
10 0 59932  75822.000000  0   -4480798.395   3920888.692   3455646.151
10 0 59932  75942.000000  0   -4654942.652   4328411.270   2647130.843
10 0 59932  76062.000000  0   -4741194.842   4662519.751   1791992.621
10 0 59932  76182.000000  0   -4739397.642   4915833.529    905292.351
10 0 59932  76302.000000  0   -4651064.628   5082412.125      2649.395
10 0 59932  76422.000000  0   -4479328.837   5157890.887   -900041.169
10 0 59932  76542.000000  0   -4228857.165   5139585.757  -1786899.623
10 0 59932  76662.000000  0   -3905731.561   5026561.440  -2642349.291
10 0 59932  76782.000000  0   -3517305.384   4819665.414  -3451396.936
10 0 59932  76902.000000  0   -3072034.639   4521523.848  -4199898.766
10 0 59932  77022.000000  0   -2579291.404   4136502.660  -4874805.600
10 0 59932  77142.000000  0   -2049164.512   3670636.396  -5464383.922
10 0 59932  77262.000000  0   -1492252.320   3131527.044  -5958412.116
10 0 59932  77382.000000  0    -919450.502   2528212.852  -6348348.384
10 0 59932  77502.000000  0    -341740.038   1871011.471  -6627466.701
10 0 59932  77622.000000  0     230019.785   1171342.026  -6790961.438
10 0 59932  77742.000000  0     785290.234    441528.219  -6836021.693
10 0 59932  77862.000000  0    1314043.399   -305414.789  -6761875.198
10 0 59932  77982.000000  0    1806939.003  -1056008.010  -6569798.677
10 0 59932  78102.000000  0    2255485.089  -1796545.303  -6263097.754
10 0 59932  78222.000000  0    2652182.444  -2513337.274  -5847056.414
10 0 59932  78342.000000  0    2990650.013  -3192960.021  -5328857.070
10 0 59932  78462.000000  0    3265730.631  -3822507.300  -4717467.602
10 0 59932  78582.000000  0    3473571.777  -4389836.660  -4023494.915
10 0 59932  78702.000000  0    3611681.496  -4883806.138  -3259011.631
10 0 59932  78822.000000  0    3678960.035  -5294499.725  -2437355.141
10 0 59932  78942.000000  0    3675703.267  -5613435.121  -1572898.437
10 0 59932  79062.000000  0    3603577.828  -5833745.741   -680798.649
99
